COSMOS 2433 (720)       
1 32275U 07052A   22138.31400132 -.00000056  00000+0  00000+0 0  9993
2 32275  66.0818   5.6703 0001053 296.0272 242.7591  2.13104180113328
COSMOS 2432 (719)       
1 32276U 07052B   22138.37055138 -.00000056  00000+0  00000+0 0  9992
2 32276  66.0948   5.7714 0010451 340.7064 189.8741  2.13103544113325
COSMOS 2434 (721)       
1 32393U 07065A   22137.95443081  .00000025  00000+0  00000+0 0  9992
2 32393  64.3892 242.4668 0002875  92.7887  59.6012  2.13103223112025
COSMOS 2436 (723)       
1 32395U 07065C   22137.98910553  .00000025  00000+0  00000+0 0  9990
2 32395  64.3988 242.5209 0015154   3.0332 311.8600  2.13103066111951
COSMOS 2456 (730)       
1 36111U 09070A   22138.14809188  .00000057  00000+0  00000+0 0  9993
2 36111  64.3460 122.0947 0006308 303.4249 163.5260  2.13099315 96690
COSMOS 2457 (733)       
1 36112U 09070B   22137.91501458  .00000057  00000+0  00000+0 0  9997
2 36112  64.3295 121.9790 0004186 200.8046 214.3897  2.13101498 96695
COSMOS 2461 (735)       
1 36401U 10007B   22137.77864285 -.00000053  00000+0  00000+0 0  9991
2 36401  65.9695   4.5309 0021834  10.3994 335.1393  2.13103877 95037
COSMOS 2460 (732)       
1 36402U 10007C   22138.12770909 -.00000055  00000+0  00000+0 0  9993
2 36402  65.9560   4.4696 0002478  46.8612 154.5984  2.13106509 95046
COSMOS 2464 (736)       
1 37139U 10041C   22137.94452622  .00000026  00000+0  00000+0 0  9994
2 37139  63.9897 241.5567 0028823  11.7121 351.5357  2.13100841 91103
COSMOS 2476 (744)       
1 37867U 11064A   22138.28906859  .00000059  00000+0  00000+0 0  9998
2 37867  64.6352 123.4348 0023128 241.8225 238.5409  2.13101964 82046
COSMOS 2477 (745)       
1 37868U 11064B   22137.77339785  .00000060  00000+0  00000+0 0  9992
2 37868  64.6433 123.5168 0020485 243.2154  19.6672  2.13101753 81986
COSMOS 2475 (743)       
1 37869U 11064C   22138.03865351  .00000059  00000+0  00000+0 0  9994
2 37869  64.6513 123.5152 0025298 258.7890 165.5644  2.13102028 82004
COSMOS 2485 (747)       
1 39155U 13019A   22137.38009634  .00000063  00000+0  00000+0 0  9992
2 39155  64.7994 123.8868 0023494 237.7337 309.6861  2.13102013 70490
COSMOS 2492 (754)       
1 39620U 14012A   22138.26857227 -.00000055  00000+0  00000+0 0  9992
2 39620  65.8411   4.1502 0013124 333.4732 210.0686  2.13103305 63465
COSMOS 2500 (755)       
1 40001U 14032A   22137.42954861 -.00000051  00000+0  00000+0 0  9994
2 40001  65.7835   4.0422 0004230 191.2411 287.3834  2.13102556 61660
COSMOS 2501 (702K)      
1 40315U 14075A   22138.01205810  .00000025  00000+0  00000+0 0  9998
2 40315  63.6978 242.2346 0017660 207.5152 165.8196  2.13101553 58087
COSMOS 2514 (751)       
1 41330U 16008A   22137.97392856 -.00000054  00000+0  00000+0 0  9998
2 41330  65.5818   3.7225 0007913 204.6600 155.3603  2.13102675 48847
COSMOS 2516 (753)       
1 41554U 16032A   22138.05061712  .00000025  00000+0  00000+0 0  9994
2 41554  63.9228 242.5012 0014046 214.0037 106.9509  2.13106364 46443
COSMOS 2522 (752)       
1 42939U 17055A   22138.34430497  .00000024  00000+0  00000+0 0  9999
2 42939  64.1551 242.8773 0007172 239.1226 164.4610  2.13102010 36210
COSMOS 2527 (756)       
1 43508U 18053A   22138.48331360  .00000060  00000+0  00000+0 0  9995
2 43508  64.9620 123.8428 0009791 243.7166 298.6218  2.13102598 30507
COSMOS 2529 (757)       
1 43687U 18086A   22138.35340948  .00000024  00000+0  00000+0 0  9997
2 43687  64.3709 243.1856 0008998 264.9531 101.1327  2.13102159 27527
COSMOS 2534 (758)       
1 44299U 19030A   22138.25157198  .00000024  00000+0  00000+0 0  9999
2 44299  64.4443 243.0702 0011542 288.1566 134.3979  2.13102115 23166
COSMOS 2544 (759)       
1 44850U 19088A   22138.42441139  .00000059  00000+0  00000+0 0  9993
2 44850  64.9484 123.6983 0014716 264.1859 276.4575  2.13102395 18937
COSMOS 2545 (760)       
1 45358U 20018A   22138.63446067 -.00000060  00000+0  00000+0 0  9993
2 45358  64.9189   4.3330 0006982 256.0691 295.2305  2.13102779 16893
COSMOS 2547 (705K)      
1 46805U 20075A   22138.04876527  .00000025  00000+0  00000+0 0  9997
2 46805  64.6678 242.4928 0006552 243.4937  71.0569  2.13103266 12121
